{
  "type": "FeatureCollection",
  "features": [
    {
      "type": "Feature",
      "properties": {
        "norad_id": 31541,
        "name": "FENGYUN 1C DEB",
        "group": "fengyun-1c-debris",
        "lat": -72.662698467139,
        "lon": -66.1364697471365,
        "alt_km": 641.4224299416901,
        "timestamp": "2025-12-26T12:57:39.555713+00:00",
        "meta_object_name": "FENGYUN 1C DEB",
        "meta_object_id": "1999-025BYG",
        "meta_epoch": "2025-12-25T03:06:41.952672",
        "meta_mean_motion": 14.6902553,
        "meta_eccentricity": 0.0078402,
        "meta_inclination": 98.9804,
        "meta_ra_of_asc_node": 142.7501,
        "meta_arg_of_pericenter": 201.9008,
        "meta_mean_anomaly": 157.8837,
        "meta_ephemeris_type": 0,
        "meta_classification_type": "U",
        "meta_norad_cat_id": 31541,
        "meta_element_set_no": 999,
        "meta_rev_at_epoch": 98605,
        "meta_bstar": 0.0015835,
        "meta_mean_motion_dot": 9.683e-05,
        "meta_mean_motion_ddot": 0,
        "tle_line1": "1 31541U 99025BYG 25359.12965223  .00009683  00000+0  15835-2 0  9992",
        "tle_line2": "2 31541  98.9804 142.7501 0078402 201.9008 157.8837 14.69025530986057"
      },
      "geometry": {
        "type": "Point",
        "coordinates": [
          -66.1364697471365,
          -72.662698467139
        ]
      }
    },
    {
      "type": "Feature",
      "properties": {
        "norad_id": 31542,
        "name": "FENGYUN 1C DEB",
        "group": "fengyun-1c-debris",
        "lat": 0.28591628581309625,
        "lon": 54.38010246898149,
        "alt_km": 852.1602275200394,
        "timestamp": "2025-12-26T12:57:39.555723+00:00",
        "meta_object_name": "FENGYUN 1C DEB",
        "meta_object_id": "1999-025BYH",
        "meta_epoch": "2025-12-23T09:00:46.396800",
        "meta_mean_motion": 14.22851184,
        "meta_eccentricity": 0.00478944,
        "meta_inclination": 98.7301,
        "meta_ra_of_asc_node": 51.288,
        "meta_arg_of_pericenter": 176.9296,
        "meta_mean_anomaly": 183.2185,
        "meta_ephemeris_type": 0,
        "meta_classification_type": "U",
        "meta_norad_cat_id": 31542,
        "meta_element_set_no": 999,
        "meta_rev_at_epoch": 96091,
        "meta_bstar": 0.0012852727,
        "meta_mean_motion_dot": 2.877e-05,
        "meta_mean_motion_ddot": 0,
        "tle_line1": "1 31542U 99025BYH 25357.37553700  .00002877  00000+0  12853-2 0  9996",
        "tle_line2": "2 31542  98.7301  51.2880 0047894 176.9296 183.2185 14.22851184960910"
      },
      "geometry": {
        "type": "Point",
        "coordinates": [
          54.38010246898149,
          0.28591628581309625
        ]
      }
    },
    {
      "type": "Feature",
      "properties": {
        "norad_id": 31544,
        "name": "FENGYUN 1C DEB",
        "group": "fengyun-1c-debris",
        "lat": 29.994568068085265,
        "lon": 46.49540058242066,
        "alt_km": 864.8824108234794,
        "timestamp": "2025-12-26T12:57:39.555733+00:00",
        "meta_object_name": "FENGYUN 1C DEB",
        "meta_object_id": "1999-025BYK",
        "meta_epoch": "2025-12-22T10:20:35.081376",
        "meta_mean_motion": 14.14359975,
        "meta_eccentricity": 0.00322241,
        "meta_inclination": 98.8282,
        "meta_ra_of_asc_node": 47.5818,
        "meta_arg_of_pericenter": 240.9868,
        "meta_mean_anomaly": 118.8075,
        "meta_ephemeris_type": 0,
        "meta_classification_type": "U",
        "meta_norad_cat_id": 31544,
        "meta_element_set_no": 999,
        "meta_rev_at_epoch": 95894,
        "meta_bstar": 0.0006556952,
        "meta_mean_motion_dot": 1.216e-05,
        "meta_mean_motion_ddot": 0,
        "tle_line1": "1 31544U 99025BYK 25356.43096159  .00001216  00000+0  65570-3 0  9995",
        "tle_line2": "2 31544  98.8282  47.5818 0032224 240.9868 118.8075 14.14359975958942"
      },
      "geometry": {
        "type": "Point",
        "coordinates": [
          46.49540058242066,
          29.994568068085265
        ]
      }
    },
    {
      "type": "Feature",
      "properties": {
        "norad_id": 31546,
        "name": "FENGYUN 1C DEB",
        "group": "fengyun-1c-debris",
        "lat": 42.3087155191114,
        "lon": -103.44665011327918,
        "alt_km": 763.3448238246683,
        "timestamp": "2025-12-26T12:57:39.555743+00:00",
        "meta_object_name": "FENGYUN 1C DEB",
        "meta_object_id": "1999-025BYM",
        "meta_epoch": "2025-12-25T15:56:12.109056",
        "meta_mean_motion": 14.13210899,
        "meta_eccentricity": 0.01455631,
        "meta_inclination": 98.2426,
        "meta_ra_of_asc_node": 68.1644,
        "meta_arg_of_pericenter": 99.8764,
        "meta_mean_anomaly": 261.8878,
        "meta_ephemeris_type": 0,
        "meta_classification_type": "U",
        "meta_norad_cat_id": 31546,
        "meta_element_set_no": 999,
        "meta_rev_at_epoch": 94971,
        "meta_bstar": 0.0014554439,
        "meta_mean_motion_dot": 2.977e-05,
        "meta_mean_motion_ddot": 0,
        "tle_line1": "1 31546U 99025BYM 25359.66402904  .00002977  00000+0  14554-2 0  9994",
        "tle_line2": "2 31546  98.2426  68.1644 0145563  99.8764 261.8878 14.13210899949716"
      },
      "geometry": {
        "type": "Point",
        "coordinates": [
          -103.44665011327918,
          42.3087155191114
        ]
      }
    },
    {
      "type": "Feature",
      "properties": {
        "norad_id": 31547,
        "name": "FENGYUN 1C DEB",
        "group": "fengyun-1c-debris",
        "lat": 42.5878301183108,
        "lon": 36.2903902779345,
        "alt_km": 849.6382438744222,
        "timestamp": "2025-12-26T12:57:39.555753+00:00",
        "meta_object_name": "FENGYUN 1C DEB",
        "meta_object_id": "1999-025BYN",
        "meta_epoch": "2025-12-23T20:38:21.518592",
        "meta_mean_motion": 14.23194387,
        "meta_eccentricity": 0.0054564,
        "meta_inclination": 99.0859,
        "meta_ra_of_asc_node": 41.9836,
        "meta_arg_of_pericenter": 221.2814,
        "meta_mean_anomaly": 138.4231,
        "meta_ephemeris_type": 0,
        "meta_classification_type": "U",
        "meta_norad_cat_id": 31547,
        "meta_element_set_no": 999,
        "meta_rev_at_epoch": 64175,
        "meta_bstar": 0.0013187,
        "meta_mean_motion_dot": 2.981e-05,
        "meta_mean_motion_ddot": 0,
        "tle_line1": "1 31547U 99025BYN 25357.85997128  .00002981  00000+0  13187-2 0  9997",
        "tle_line2": "2 31547  99.0859  41.9836 0054564 221.2814 138.4231 14.23194387641754"
      },
      "geometry": {
        "type": "Point",
        "coordinates": [
          36.2903902779345,
          42.5878301183108
        ]
      }
    },
    {
      "type": "Feature",
      "properties": {
        "norad_id": 31550,
        "name": "FENGYUN 1C DEB",
        "group": "fengyun-1c-debris",
        "lat": -11.750998010092077,
        "lon": 1.352127609940905,
        "alt_km": 821.9629019965632,
        "timestamp": "2025-12-26T12:57:39.555782+00:00",
        "meta_object_name": "FENGYUN 1C DEB",
        "meta_object_id": "1999-025BYR",
        "meta_epoch": "2025-12-25T18:40:35.078592",
        "meta_mean_motion": 14.40274889,
        "meta_eccentricity": 0.01901062,
        "meta_inclination": 98.3122,
        "meta_ra_of_asc_node": 358.8691,
        "meta_arg_of_pericenter": 233.3004,
        "meta_mean_anomaly": 125.0588,
        "meta_ephemeris_type": 0,
        "meta_classification_type": "U",
        "meta_norad_cat_id": 31550,
        "meta_element_set_no": 999,
        "meta_rev_at_epoch": 65642,
        "meta_bstar": 0.00062693916,
        "meta_mean_motion_dot": 2.408e-05,
        "meta_mean_motion_ddot": 0,
        "tle_line1": "1 31550U 99025BYR 25359.77818378  .00002408  00000+0  62694-3 0  9995",
        "tle_line2": "2 31550  98.3122 358.8691 0190106 233.3004 125.0588 14.40274889656422"
      },
      "geometry": {
        "type": "Point",
        "coordinates": [
          1.352127609940905,
          -11.750998010092077
        ]
      }
    },
    {
      "type": "Feature",
      "properties": {
        "norad_id": 31552,
        "name": "FENGYUN 1C DEB",
        "group": "fengyun-1c-debris",
        "lat": -52.77451512161963,
        "lon": -68.8975691640273,
        "alt_km": 760.9109617621934,
        "timestamp": "2025-12-26T12:57:39.555793+00:00",
        "meta_object_name": "FENGYUN 1C DEB",
        "meta_object_id": "1999-025BYT",
        "meta_epoch": "2025-12-24T01:44:59.859456",
        "meta_mean_motion": 14.45885518,
        "meta_eccentricity": 0.00856283,
        "meta_inclination": 98.6213,
        "meta_ra_of_asc_node": 120.1143,
        "meta_arg_of_pericenter": 345.73,
        "meta_mean_anomaly": 14.1474,
        "meta_ephemeris_type": 0,
        "meta_classification_type": "U",
        "meta_norad_cat_id": 31552,
        "meta_element_set_no": 999,
        "meta_rev_at_epoch": 96040,
        "meta_bstar": 0.0027047524,
        "meta_mean_motion_dot": 0.00010022,
        "meta_mean_motion_ddot": 0,
        "tle_line1": "1 31552U 99025BYT 25358.07291504  .00010022  00000+0  27048-2 0  9999",
        "tle_line2": "2 31552  98.6213 120.1143 0085628 345.7300  14.1474 14.45885518960409"
      },
      "geometry": {
        "type": "Point",
        "coordinates": [
          -68.8975691640273,
          -52.77451512161963
        ]
      }
    }
  ]
}